GLOBALSTAR M057         
1 25943U 99058A   25334.75369183 -.00000054  00000+0  35251-3 0  9991
2 25943  51.9977 235.4867 0002972  10.7781 349.3132 12.24829838187347
GLOBALSTAR M059         
1 25944U 99058B   25334.78638325 -.00000067  00000+0  24174-3 0  9998
2 25944  51.9999 116.4625 0000794 106.0667  36.4751 11.99987990594049
GLOBALSTAR M056         
1 25945U 99058C   25334.78739022 -.00000074  00000+0  16055-3 0  9992
2 25945  51.9948 114.1490 0001780 131.0657  17.3081 12.04782014182709
GLOBALSTAR M031         
1 25946U 99058D   25334.80112154 -.00000088  00000+0  29473-4 0  9991
2 25946  51.9991 356.4625 0001476 154.5865  16.6429 12.16044194184817
GLOBALSTAR M039         
1 25961U 99062A   25334.83860880 -.00000070  00000+0  19092-3 0  9998
2 25961  51.9828 121.1216 0002476  21.1365 338.9603 12.62338330201263
GLOBALSTAR M034         
1 25962U 99062B   25334.67352788 -.00000061  00000+0  31250-3 0  9994
2 25962  51.9890 298.6177 0014657 357.4962 174.1816 11.79452580158034
GLOBALSTAR M029         
1 25963U 99062C   25334.81370552 -.00000070  00000+0  20072-3 0  9990
2 25963  51.9827   4.2835 0002632  88.9869  82.4051 11.99903254189126
GLOBALSTAR M061         
1 25964U 99062D   25334.67900939 -.00000076  00000+0  62658-4 0  9996
2 25964  51.9767 124.8459 0004806 276.1279  96.7879 11.76778178140787
